NORAD_CAT_ID,OBJECT_NAME,OBJECT_TYPE,EPOCH,MEAN_MOTION,ECCENTRICITY,INCLINATION,RA_OF_ASC_NODE,ARG_OF_PERICENTER,MEAN_ANOMALY,BSTAR,MEAN_MOTION_DOT,MEAN_MOTION_DDOT,TLE_LINE0,TLE_LINE1,TLE_LINE2,SEMIMAJOR_AXIS,PERIOD,APOGEE,PERIGEE,DECAYED
51717.0,STARLINK-3445,PAYLOAD,2022-09-29 05:42:43,15.08821663,0.0001851999999999,53.2153,214.0527,44.4711,315.6429,-0.00017781,-3.115e-05,0.0,0 STARLINK-3445,1 51717U 22016D   22272.23799998 -.00003115  00000-0 -17781-3 0  9992,2 51717  53.2153 214.0527 0001852  44.4711 315.6429 15.08821663 33590,6917.936,95.439,541.0830000000002,538.52,0.0
51717.0,STARLINK-3445,PAYLOAD,2022-09-29 20:01:11,15.08826206,0.0001921999999999,53.215,211.3763,42.0266,318.0873,-0.00017599,-3.087e-05,0.0,0 STARLINK-3445,1 51717U 22016D   22272.83415960 -.00003087  00000-0 -17599-3 0  9997,2 51717  53.2150 211.3763 0001922  42.0266 318.0873 15.08826206 34810,6917.9230000000025,95.438,541.117,538.4580000000002,0.0
51717.0,STARLINK-3445,PAYLOAD,2022-09-30 07:08:53,15.08835545,0.0001998,53.2152,209.2952,45.6986,314.4170000000001,0.0002835,4.226e-05,0.0,0 STARLINK-3445,1 51717U 22016D   22273.29784104  .00004226  00000-0  28350-3 0  9998,2 51717  53.2152 209.2952 0001998  45.6986 314.4170 15.08835545 33757,6917.894,95.438,541.141,538.377,0.0
51717.0,STARLINK-3445,PAYLOAD,2022-09-30 13:30:25,15.08848022,0.0001981,53.2151,208.1058,45.2395,314.8758,0.00073797,0.00011479,0.0,0 STARLINK-3445,1 51717U 22016D   22273.56280066  .00011479  00000-0  73797-3 0  9999,2 51717  53.2151 208.1058 0001981  45.2395 314.8758 15.08848022 33797,6917.856,95.437,541.091,538.35,0.0
51717.0,STARLINK-3445,PAYLOAD,2022-10-01 05:24:16,15.08863795,0.0002089,53.2155,205.1332,48.7567,311.3605,0.00074729,0.00011633,0.0,0 STARLINK-3445,1 51717U 22016D   22274.22519495  .00011633  00000-0  74729-3 0  9992,2 51717  53.2155 205.1332 0002089  48.7567 311.3605 15.08863795 33890,6917.808000000001,95.436,541.118,538.2280000000002,0.0
51717.0,STARLINK-3445,PAYLOAD,2022-10-01 19:42:44,15.08863679,0.0002085,53.2149,202.4556,52.0993,308.0188,0.00045026,6.890000000000001e-05,0.0,0 STARLINK-3445,1 51717U 22016D   22274.82134923  .00006890  00000-0  45026-3 0  9994,2 51717  53.2149 202.4556 0002085  52.0993 308.0188 15.08863679 33988,6917.808000000001,95.436,541.115,538.231,0.0
51717.0,STARLINK-3445,PAYLOAD,2022-10-02 02:04:16,15.08849432,0.0002026,53.215,201.2661,42.835,317.28,1.6442999999999998e-05,-2.6e-07,0.0,0 STARLINK-3445,1 51717U 22016D   22275.08630776 -.00000026  00000-0  16443-4 0  9998,2 51717  53.2150 201.2661 0002026  42.8350 317.2800 15.08849432 35158,6917.852,95.437,541.118,538.315,0.0
51717.0,STARLINK-3445,PAYLOAD,2022-10-03 01:55:04,15.08841778,0.0002032,53.2151,196.8059,45.613,314.5028,0.00056731,8.753e-05,0.0,0 STARLINK-3445,1 51717U 22016D   22276.07991591  .00008753  00000-0  56731-3 0  9990,2 51717  53.2151 196.8059 0002032  45.6130 314.5028 15.08841778 35307,6917.875,95.437,541.146,538.3340000000002,0.0
51717.0,STARLINK-3445,PAYLOAD,2022-10-03 11:27:23,15.08844896,0.0002055,53.2149,195.0212,46.3274,313.7888,0.00064524,9.997e-05,0.0,0 STARLINK-3445,1 51717U 22016D   22276.47735617  .00009997  00000-0  64524-3 0  9999,2 51717  53.2149 195.0212 0002055  46.3274 313.7888 15.08844896 34238,6917.865,95.437,541.1519999999998,538.309,0.0
51717.0,STARLINK-3445,PAYLOAD,2022-10-03 19:24:18,15.08855808,0.0002265,53.2138,193.5319,41.733,318.3835,0.00086452,0.00013504,0.0,0 STARLINK-3445,1 51717U 22016D   22276.80854967  .00013504  00000-0  86452-3 0  9999,2 51717  53.2138 193.5319 0002265  41.7330 318.3835 15.08855808 34285,6917.831999999999,95.437,541.264,538.13,0.0
51717.0,STARLINK-3445,PAYLOAD,2022-10-04 00:10:27,15.08870233,0.0001940999999999,53.2152,192.6431,40.1711,319.9424,0.0014594,0.00023034,0.0,0 STARLINK-3445,1 51717U 22016D   22277.00726794  .00023034  00000-0  14594-2 0  9994,2 51717  53.2152 192.6431 0001941  40.1711 319.9424 15.08870233 35441,6917.788000000001,95.436,540.996,538.31,0.0
51717.0,STARLINK-3445,PAYLOAD,2022-10-04 11:18:09,15.08858363,0.0001821,53.2154,190.5611,44.5445,315.5693,0.00029036,4.338e-05,0.0,0 STARLINK-3445,1 51717U 22016D   22277.47094426  .00004338  00000-0  29036-3 0  9999,2 51717  53.2154 190.5611 0001821  44.5445 315.5693 15.08858363 34381,6917.824000000001,95.436,540.9490000000002,538.43,0.0
51717.0,STARLINK-3445,PAYLOAD,2022-10-05 03:12:01,15.0884159,0.0001828,53.2146,187.5878,46.7079,313.4065,-3.5991e-05,-8.61e-06,0.0,0 STARLINK-3445,1 51717U 22016D   22278.13334776 -.00000861  00000-0 -35991-4 0  9995,2 51717  53.2146 187.5878 0001828  46.7079 313.4065 15.08841590 35618,6917.876,95.437,541.005,538.476,0.0
51717.0,STARLINK-3445,PAYLOAD,2022-10-05 11:08:57,15.08840484,0.0001986999999999,53.2149,186.0996,43.5357,316.5792,7.312100000000001e-05,8.76e-06,0.0,0 STARLINK-3445,1 51717U 22016D   22278.46454884  .00000876  00000-0  73121-4 0  9995,2 51717  53.2149 186.0996 0001987  43.5357 316.5792 15.08840484 34538,6917.879,95.438,541.118,538.369,0.0
51717.0,STARLINK-3445,PAYLOAD,2022-10-06 01:27:25,15.08835733,0.0001903,53.2151,183.4236,45.955,314.1598,-3.2943e-05,-8.12e-06,0.0,0 STARLINK-3445,1 51717U 22016D   22279.06071452 -.00000812  00000-0 -32943-4 0  9997,2 51717  53.2151 183.4236 0001903  45.9550 314.1598 15.08835733 35752,6917.893,95.438,541.075,538.442,0.0
51717.0,STARLINK-3445,PAYLOAD,2022-10-06 10:59:44,15.08849391,0.0001950999999999,53.2156,181.6392,45.2399,314.8752,0.00038196,5.798e-05,0.0,0 STARLINK-3445,1 51717U 22016D   22279.45815031  .00005798  00000-0  38196-3 0  9990,2 51717  53.2156 181.6392 0001951  45.2399 314.8752 15.08849391 35818,6917.852,95.437,541.066,538.367,0.0
51717.0,STARLINK-3445,PAYLOAD,2022-10-07 02:53:35,15.08843087,0.0001965,53.216,178.6658,50.4697,309.6468,0.0002788999999999,4.154e-05,0.0,0 STARLINK-3445,1 51717U 22016D   22280.12055524  .00004154  00000-0  27890-3 0  9993,2 51717  53.2160 178.6658 0001965  50.4697 309.6468 15.08843087 35911,6917.871,95.437,541.095,538.377,0.0
51717.0,STARLINK-3445,PAYLOAD,2022-10-07 04:28:59,15.08844639,0.0001949,53.2162,178.3686,51.2905,308.8261,0.00029561,4.42e-05,0.0,0 STARLINK-3445,1 51717U 22016D   22280.18679481  .00004420  00000-0  29561-3 0  9996,2 51717  53.2162 178.3686 0001949  51.2905 308.8261 15.08844639 34795,6917.866,95.437,541.08,538.383,0.0
51717.0,STARLINK-3445,PAYLOAD,2022-10-07 20:22:50,15.08848927,0.0001931,53.2163,175.395,50.3205,309.7957,0.00030282,4.536e-05,0.0,0 STARLINK-3445,1 51717U 22016D   22280.84919136  .00004536  00000-0  30282-3 0  9993,2 51717  53.2163 175.3950 0001931  50.3205 309.7957 15.08848927 34898,6917.853,95.437,541.054,538.382,0.0
51717.0,STARLINK-3445,PAYLOAD,2022-10-08 02:44:23,15.08835039,0.000198,53.2156,174.2052,48.6308,311.4854,-7.261799999999998e-07,-3e-06,0.0,0 STARLINK-3445,1 51717U 22016D   22281.11415669 -.00000300  00000-0 -72618-6 0  9995,2 51717  53.2156 174.2052 0001980  48.6308 311.4854 15.08835039 36066,6917.896,95.438,541.13,538.391,0.0
51717.0,STARLINK-3445,PAYLOAD,2022-10-08 04:19:46,15.08834708,0.000179,53.2153,173.90900000000005,46.55,313.5641,0.00013721,1.896e-05,0.0,0 STARLINK-3445,1 51717U 22016D   22281.18039730  .00001896  00000-0  13721-3 0  9999,2 51717  53.2153 173.9090 0001790  46.5500 313.5641 15.08834708 34945,6917.897,95.438,541.0,538.523,0.0
51717.0,STARLINK-3445,PAYLOAD,2022-10-08 20:13:38,15.0883312,0.0001943,53.2154,170.9343,47.3743,312.7413,8.0111e-06,-1.61e-06,0.0,0 STARLINK-3445,1 51717U 22016D   22281.84280110 -.00000161  00000-0  80111-5 0  9996,2 51717  53.2154 170.9343 0001943  47.3743 312.7413 15.08833120 35049,6917.901,95.438,541.111,538.422,0.0
51717.0,STARLINK-3445,PAYLOAD,2022-10-09 12:07:28,15.08846962,0.0001753,53.2153,167.9615,43.7436,316.3695,0.00013029,1.786e-05,0.0,0 STARLINK-3445,1 51717U 22016D   22282.50519361  .00001786  00000-0  13029-3 0  9998,2 51717  53.2153 167.9615 0001753  43.7436 316.3695 15.08846962 35145,6917.859,95.437,540.937,538.511,0.0
51717.0,STARLINK-3445,PAYLOAD,2022-10-09 18:29:01,15.08836174,0.0001836,53.2153,166.7723,43.0527,317.0608,4.6362e-05,4.5e-06,0.0,0 STARLINK-3445,1 51717U 22016D   22282.77015965  .00000450  00000-0  46362-4 0  9992,2 51717  53.2153 166.7723 0001836  43.0527 317.0608 15.08836174 36314,6917.892,95.438,541.0269999999998,538.487,0.0
51717.0,STARLINK-3445,PAYLOAD,2022-10-09 20:04:24,15.088378400000002,0.0001732,53.2149,166.4734,50.5456,309.5689,6.6002e-05,7.62e-06,0.0,0 STARLINK-3445,1 51717U 22016D   22282.83639833  .00000762  00000-0  66002-4 0  9994,2 51717  53.2149 166.4734 0001732  50.5456 309.5689 15.08837840 35198,6917.887,95.438,540.95,538.554,0.0
51717.0,STARLINK-3445,PAYLOAD,2022-10-10 11:58:16,15.08838992,0.0001841999999999,53.2152,163.5007,44.968,315.1461,0.0001576999999999,2.223e-05,0.0,0 STARLINK-3445,1 51717U 22016D   22283.49880082  .00002223  00000-0  15770-3 0  9990,2 51717  53.2152 163.5007 0001842  44.9680 315.1461 15.08838992 35292,6917.8830000000025,95.438,541.023,538.474,0.0
51717.0,STARLINK-3445,PAYLOAD,2022-10-10 18:19:48,15.08849759,0.0001894,53.215,162.3111,49.4481,310.6676,0.00030625,4.591e-05,0.0,0 STARLINK-3445,1 51717U 22016D   22283.76375714  .00004591  00000-0  30625-3 0  9997,2 51717  53.2150 162.3111 0001894  49.4481 310.6676 15.08849759 35335,6917.851,95.437,541.026,538.405,0.0
51717.0,STARLINK-3445,PAYLOAD,2022-10-11 11:49:03,15.08830536,0.0001208,53.2149,159.0396,58.3651,301.7458,-0.00012311,-2.246e-05,0.0,0 STARLINK-3445,1 51717U 22016D   22284.49240368 -.00002246  00000-0 -12311-3 0  9993,2 51717  53.2149 159.0396 0001208  58.3651 301.7458 15.08830536 36577,6917.909000000002,95.438,540.61,538.939,0.0
51717.0,STARLINK-3445,PAYLOAD,2022-10-11 18:10:37,15.08815088,0.0001402,53.2144,157.8505,56.6093,303.5033,-0.0001526,-2.714e-05,0.0,0 STARLINK-3445,1 51717U 22016D   22284.75737686 -.00002714  00000-0 -15260-3 0  9992,2 51717  53.2144 157.8505 0001402  56.6093 303.5033 15.08815088 35480,6917.956999999999,95.439,540.7909999999998,538.852,0.0
